00235    8.82  0.15 K051U  49.43916  211.84656   66.24592    9.02632  0.0595262  0.20135440   2.8828937  0 MPC 36495   162  39 1883-1999 0.55 M-v 38h Goffin     0000   (235) Carolina            19990615
00236    8.18 -0.02 K051U 132.41333  173.78250  186.18347    7.69423  0.1897534  0.21047332   2.7990115  0 MPO 53552   592  65 1884-2003 0.56 M-v 38h Goffin     0000   (236) Honoria             20030905
00237    9.24  0.15 K051U  69.16633  201.74278   84.44673    9.75433  0.0729636  0.21459893   2.7630221  0 MPC 26147    95  36 1884-1994 0.93 M-v 38d Goffin     0000   (237) Coelestina          19940 0
00238    8.18  0.15 K051U  59.10109  206.93471  184.20013   12.40806  0.0888650  0.19893568   2.9062141  0 MPC 32294   206  51 1884-1997 0.56 M-v 38h Goffin     0000   (238) Hypatia             19970722
00239   10.3   0.15 K051U 146.51908  209.06017  180.90388    6.16895  0.2283761  0.19161099   2.9798137  0 MPC 37254   145  32 1884-1999 0.56 M-v 38h Goffin     0000   (239) Adrastea            19990518
00240    9.00  0.15 K051U 188.42377  300.57490  115.22500    2.10452  0.2065531  0.22666685   2.6640603  0 MPC 36495   321  51 1884-1999 0.55 M-v 38h Goffin     0000   (240) Vanadis             19990508
00241    7.58  0.15 K051U 224.41652   77.67546  270.63805    5.50554  0.0956954  0.18459447   3.0548526  0 MPO 50329  1062  84 1884-2003 0.56 M-v 38h Goffin     0000   (241) Germania            20030404
00242    9.2   0.15 K051U 219.78223  276.49808  207.37274   11.31829  0.1215187  0.20347123   2.8628640  0 MPC 37254   170  41 1884-1999 0.54 M-v 38h Goffin     0000   (242) Kriemhild           19991016
00243    9.94  0.15 K051U 265.90441  108.67834  324.21727    1.13770  0.0462384  0.20362885   2.8613864  0 MPO 38158   949  49 1884-2002 0.54 M-v 38h Goffin     0000   (243) Ida                 20020417
00244   12.2   0.15 K051U 195.23434  166.11559  209.09934    2.84278  0.1370377  0.30726641   2.1750003  0 MPC 36495   177  31 1884-1999 0.54 M-v 38h Goffin     0000   (244) Sita                19990812
00245    7.82  0.15 K051U  85.44505  327.09686   61.55625    5.17605  0.2002975  0.18111702   3.0938306  1 MPC 25033    88  31 1916-1994 0.92 M-c 08  Bowell     0000   (245) Vera                19940 0
00246    8.62  0.15 K051U 318.05391   95.23850  162.52980   15.64488  0.1067179  0.22269396   2.6956516  0 MPO  3854   332  42 1885-2000 0.55 M-v 38h Goffin     0000   (246) Asporina            20000603
00247    8.04  0.15 K051U 243.67260   55.13373    0.23487   24.99316  0.2444407  0.21734897   2.7396662  1 MPC 27543    99  34 1885-1996 1.13 M-v 38h Williams   0000   (247) Eukrate             19960 0
00248   10.21  0.15 K051U 278.55824   10.58650  247.07093    4.04967  0.0653156  0.25364755   2.4716232  0 MPC 35055   155  38 1885-1998 0.56 M-v 38h Goffin     0000   (248) Lameia              19980726
00249   11.33  0.15 K051U 175.35648   41.90960  334.85118    9.62939  0.2158336  0.26857105   2.3791944  1 MPO  9657   156  22 1885-2001 0.73 M-v 38h Williams   0000   (249) Ilse                20010201
00250    7.58  0.15 K051U  37.53128   75.08681   24.10000   12.84398  0.1246988  0.17626206   3.1503840  0 MPC 30777   240  51 1885-1996 0.56 M-v 38h Goffin     0000   (250) Bettina             19961014
00251   10.0   0.15 K051U 258.42574  287.09737  156.31455   10.52682  0.1058054  0.18121164   3.0927536  0 MPC 35405   119  31 1885-1998 0.56 M-v 38h Goffin     0000   (251) Sophia              19980724
00252    9.1   0.15 K051U 115.61354  154.16492  202.29452   10.06553  0.0762362  0.17580436   3.1558496  0 MPC 32506   149  39 1885-1997 0.56 M-v 38h Goffin     0000   (252) Clementina          19971227
00253   10.2   0.15 K051U 288.85418  157.45829  179.64250    6.73849  0.2658206  0.22890811   2.6466424  0 MPO 15993   609  27 1885-2001 0.59 M-v 38h Williams   0000   (253) Mathilde            20010820
00254   12.13  0.15 K051U 147.78138  233.22693   28.54559    4.51490  0.1212678  0.30309764   2.1948980  1 MPO   595   121  22 1886-2000 0.89 M-v 38h Williams   0000   (254) Augusta             20000510
00255   10.39  0.15 K051U  74.61998  152.96046   13.77361    9.48627  0.0808326  0.21678299   2.7444327  1 MPO  2601   213  34 1886-2000 0.77 M-v 38h Williams   0000   (255) Oppavia             20000607
00256    9.8   0.15 K051U 271.71635   50.00362  183.11477   13.32164  0.0710116  0.18988559   2.9978372  0 MPC 37254    87  30 1886-1998 0.55 M-v 38h Goffin     0000   (256) Walpurga            19981222
00257    9.47  0.15 K051U   2.01322   24.72608   34.89362    3.64808  0.1191044  0.17915981   3.1163220  0 MPO 47586   439  40 1891-2003 0.76 M-v 38h MPC        0000   (257) Silesia             20030514
00258    8.50  0.23 K051U 258.96818  154.94825  207.70148   14.29306  0.2048232  0.23310248   2.6147978  0 MPO 31791   880  67 1886-2001 0.56 M-v 38h Goffin     0000   (258) Tyche               20011217
00259    7.76  0.15 K051U 116.28679  168.89635   87.15082   10.81539  0.1214243  0.17709404   3.1405094  0 MPO 41498   373  35 1898-2002 0.73 M-v 38h MPC        0000   (259) Aletheia            20020614
00260    8.97  0.15 K051U 186.16868  178.34522  165.83654    6.44445  0.1229127  0.15416473   3.4446573  0 MPO  2601   197  31 1930-2000 0.82 M-v 38h Williams   0000   (260) Huberta             20000703
00261    9.44  0.19 K051U 313.52479   65.50150   96.77908    3.63534  0.0897988  0.27690304   2.3312252  0 MPO   595   271  51 1886-1999 0.54 M-v 38h Goffin     0000   (261) Prymno              19990907
00262   11.67  0.15 K051U 334.03901   24.52711   38.70971    7.70944  0.2144642  0.24176554   2.5519556  0 MPO 50329   386  26 1886-2003 0.54 M-v 38h Goffin     0000   (262) Valda               20030529
00263   10.40  0.15 K051U  58.55059  158.47075  216.66218    1.31368  0.0792079  0.20106666   2.8856435  0 MPC 31133   178  42 1886-1997 0.56 M-v 38h Goffin     0000   (263) Dresda              19970505
00264    8.42  0.15 K051U  92.53009  339.26921   49.79969   10.43411  0.1353173  0.21057862   2.7980783  1 MPC 38008    75  30 1893-1999 1.06 M-v 38h Williams   0000   (264) Libussa             19991203
00265   11.2   0.15 K051U  64.92264  251.77739  335.64179   25.63030  0.2676638  0.26179465   2.4200753  0 MPC 36495    87  17 1887-1999 0.56 M-v 38h Goffin     0000   (265) Anna                19990208
00266    8.80  0.15 K051U 250.56075  151.35973  236.00659   13.39052  0.1571170  0.20998943   2.8033098  1 MPO  2601   183  36 1891-2000 0.75 M-v 38h Williams   0000   (266) Aline               20000608
00267   10.5   0.15 K051U 151.29631  196.76404   73.92743    6.01208  0.1023421  0.21341944   2.7731928  1 MPO  2601   133  26 1907-2000 0.79 M-v 38h Williams   0000   (267) Tirza               20000108
00268    8.28  0.15 K051U 260.20800   70.84244  120.97689    2.43664  0.1324482  0.18100974   3.0950530  0 MPC 34570   307  52 1887-1998 0.55 M-v 38h Goffin     0000   (268) Adorea              19981211
00269    9.5   0.15 K051U 321.14069  119.92931  156.81595    5.47844  0.2120157  0.23272246   2.6176436  0 MPC 30777   134  38 1887-1994 0.56 M-v 38h Goffin     0000   (269) Justitia            19940210
00270    8.75  0.15 K051U  29.19329   80.42688  254.56809    2.36507  0.1507870  0.30237951   2.1983718  0 MPO 35428   719  63 1887-2002 0.55 M-v 38h Goffin     0000   (270) Anahita             20020112
00271    9.80  0.15 K051U 169.50839   58.32614  335.66672    3.53674  0.0973032  0.18871666   3.0102037  0 MPO 41498   484  46 1887-2002 0.55 M-v 38h Goffin     0000   (271) Penthesilea         20021114
00272   10.7   0.15 K051U 129.78741   68.16188   37.47364    4.44370  0.0309094  0.21297381   2.7770599  0 MPC 37254   168  34 1888-1999 0.55 M-v 38h Goffin     0000   (272) Antonia             19990508
00273   10.26  0.15 K051U  91.72009  120.59989  159.14485   20.44000  0.1598353  0.26583137   2.3955132  1 MPC 25033    46  20 1911-1993 0.78 M-v 38  Bowell     0000   (273) Atropos             19930 0
00274   10.1   0.15 K051U 344.32742  120.36951   92.90679    3.68148  0.1262409  0.18571904   3.0425083  0 MPO 57621   621  46 1888-2003 0.55 M-v 38h Goffin     0000   (274) Philagoria          20031028
00275    8.85  0.15 K051U 127.42267   37.29107  134.29281    4.77080  0.1614161  0.21347701   2.7726942  0 MPC 25033   126  29 1897-1994 0.87 M-c 08  Bowell     0000   (275) Sapientia           19940 0
00276    8.56  0.15 K051U 168.82138  268.38650  211.30136   21.64470  0.0728573  0.17944926   3.1129700  0 MPC 30777   203  43 1888-1997 0.56 M-v 38h Goffin     0000   (276) Adelheid            19970309
00277    9.84  0.15 K051U 145.51601  134.11810  231.77305    1.15563  0.0886496  0.20097001   2.8865686  0 MPO 62176   602  46 1888-2004 0.53 M-v 38h Goffin     0000   (277) Elvira              20040117
00278    9.4   0.15 K051U 218.23748  140.96179   62.12483    7.82493  0.1321189  0.21543206   2.7558939  0 MPO 53552   549  46 1888-2003 0.55 M-v 38h Goffin     0000   (278) Paulina             20030723
00279    8.57  0.15 K051U 274.79578   82.81883   73.64357    2.33806  0.0123513  0.11143365   4.2768610    MPC 22386   249  53 1888-1991 0.93 M-c 08  Goffin     0000   (279) Thule               19910 0
00280   10.7   0.15 K051U 317.49616   85.74869   10.40398    7.44614  0.1064064  0.19507341   2.9444488  1 MPC 25315   101  21 1888-1994 0.79 M-c 08  Goffin     0000   (280) Philia              19940 0
00281   12.02  0.28 K051U 323.18841   16.28793   31.50205    5.30827  0.1324266  0.30456655   2.1878351  0 MPO 53552   513  26 1888-2003 0.54 M-v 38h Goffin     0000   (281) Lucretia            20030623
00282   10.91  0.15 K051U 200.70986  295.66322  145.05604    9.02326  0.0812862  0.27553536   2.3389332  1 MPC 26379    91  27 1889-1994 0.97 M-v 38d Goffin     0000   (282) Clorinde            19940 0
00283    8.72  0.15 K051U  67.85449   54.03155  304.50631    7.99126  0.1527724  0.18567878   3.0429480  0 MPC 34570   206  54 1889-1998 0.56 M-v 38h Goffin     0000   (283) Emma                19981230
